[{"OBJECT_NAME":"TIANMU-1 09","OBJECT_ID":"2023-101C","EPOCH":"2026-03-09T22:17:34.703232","MEAN_MOTION":15.29080822,"ECCENTRICITY":0.00049013,"INCLINATION":97.267,"RA_OF_ASC_NODE":121.1263,"ARG_OF_PERICENTER":139.4293,"MEAN_ANOMALY":220.7314,"EPHEMERIS_TYPE":0,"CLASSIFICATION_TYPE":"U","NORAD_CAT_ID":57401,"ELEMENT_SET_NO":999,"REV_AT_EPOCH":14647,"BSTAR":0.00030540035,"MEAN_MOTION_DOT":8.553e-5,"MEAN_MOTION_DDOT":0},{"OBJECT_NAME":"STARLINK-30855","OBJECT_ID":"2023-170S","EPOCH":"2026-03-09T22:00:01.999584","MEAN_MOTION":15.27439208,"ECCENTRICITY":3.015e-5,"INCLINATION":43.0006,"RA_OF_ASC_NODE":193.2131,"ARG_OF_PERICENTER":337.2148,"MEAN_ANOMALY":279.9902,"EPHEMERIS_TYPE":0,"CLASSIFICATION_TYPE":"U","NORAD_CAT_ID":58222,"ELEMENT_SET_NO":999,"REV_AT_EPOCH":578,"BSTAR":0.0026791375,"MEAN_MOTION_DOT":0.00073885,"MEAN_MOTION_DDOT":0}]
